$$SOE
2460721.500000000, A.D. 2025-Feb-15 00:00:00.0000, -3.075533742391970E+08, 1.998890528902649E+08, 5.813969757638700E+07,
2460728.500000000, A.D. 2025-Feb-22 00:00:00.0000, -3.148811435843319E+08, 1.911885622440816E+08, 5.593036595500864E+07,
2460735.500000000, A.D. 2025-Mar-01 00:00:00.0000, -3.219133926242462E+08, 1.823086357464377E+08, 5.366853852714001E+07,
2460742.500000000, A.D. 2025-Mar-08 00:00:00.0000, -3.286464773932737E+08, 1.732592796174769E+08, 5.135683094676538E+07,
2460749.500000000, A.D. 2025-Mar-15 00:00:00.0000, -3.350771285302393E+08, 1.640504794985608E+08, 4.899785872343130E+07,
2460756.500000000, A.D. 2025-Mar-22 00:00:00.0000, -3.412024439138222E+08, 1.546921882462739E+08, 4.659423393714394E+07,
2460763.500000000, A.D. 2025-Mar-29 00:00:00.0000, -3.470198796428951E+08, 1.451943123247913E+08, 4.414856186930751E+07,
2460770.500000000, A.D. 2025-Apr-05 00:00:00.0000, -3.525272391003563E+08, 1.355666999148724E+08, 4.166343777344819E+07,
2460777.500000000, A.D. 2025-Apr-12 00:00:00.0000, -3.577226620909063E+08, 1.258191308231164E+08, 3.914144396693971E+07,
2460784.500000000, A.D. 2025-Apr-19 00:00:00.0000, -3.626046142981246E+08, 1.159613072918535E+08, 3.658514718327410E+07,
2460791.500000000, A.D. 2025-Apr-26 00:00:00.0000, -3.671718768370154E+08, 1.060028454842081E+08, 3.399709613585202E+07,
2460798.500000000, A.D. 2025-May-03 00:00:00.0000, -3.714235358303092E+08, 9.595326763566451E+07, 3.137981927609095E+07,
2460805.500000000, A.D. 2025-May-10 00:00:00.0000, -3.753589720187688E+08, 8.582199484997754E+07, 2.873582273551539E+07,
2460812.500000000, A.D. 2025-May-17 00:00:00.0000, -3.789778504047776E+08, 7.561834046633762E+07, 2.606758843678445E+07,
2460819.500000000, A.D. 2025-May-24 00:00:00.0000, -3.822801097881745E+08, 6.535150391084000E+07, 2.337757234501505E+07,
2460826.500000000, A.D. 2025-May-31 00:00:00.0000, -3.852659518059586E+08, 5.503056531058642E+07, 2.066820283829596E+07,
2460833.500000000, A.D. 2025-Jun-07 00:00:00.0000, -3.879358299027248E+08, 4.466448204221435E+07, 1.794187932444711E+07,
2460840.500000000, A.D. 2025-Jun-14 00:00:00.0000, -3.902904406207631E+08, 3.426208651459458E+07, 1.520097125824970E+07,
2460847.500000000, A.D. 2025-Jun-21 00:00:00.0000, -3.923307160170591E+08, 2.383208188289694E+07, 1.244781717213124E+07,
2460854.500000000, A.D. 2025-Jun-28 00:00:00.0000, -3.940578140967376E+08, 1.338303743009808E+07, 9.684723569644002E+06,
2460861.500000000, A.D. 2025-Jul-05 00:00:00.0000, -3.954731087904034E+08, 2.923385741874406E+06, 6.913963989215575E+06,
2460868.500000000, A.D. 2025-Jul-12 00:00:00.0000, -3.965781806782655E+08, -7.538579162888014E+06, 4.137778273798025E+06,
2460875.500000000, A.D. 2025-Jul-19 00:00:00.0000, -3.973748082844349E+08, -1.799470335080273E+07, 1.358371974408277E+06,
2460882.500000000, A.D. 2025-Jul-26 00:00:00.0000, -3.978649597411158E+08, -2.843697422569918E+07, -1.422084143669249E+06,
2460889.500000000, A.D. 2025-Aug-02 00:00:00.0000, -3.980507847635457E+08, -3.885752151820709E+07, -4.201454503323190E+06,
2460896.500000000, A.D. 2025-Aug-09 00:00:00.0000, -3.979346069165310E+08, -4.924861805381153E+07, -6.977639036843695E+06,
2460903.500000000, A.D. 2025-Aug-16 00:00:00.0000, -3.975189160985401E+08, -5.960268038762718E+07, -9.748573444676753E+06,
2460910.500000000, A.D. 2025-Aug-23 00:00:00.0000, -3.968063609522706E+08, -6.991226931325752E+07, -1.251222942339003E+07,
2460917.500000000, A.D. 2025-Aug-30 00:00:00.0000, -3.957997408726889E+08, -8.017008955438532E+07, -1.526661484051455E+07,
2460924.500000000, A.D. 2025-Sep-06 00:00:00.0000, -3.945019990290033E+08, -9.036898766086479E+07, -1.800977364997284E+07,
2460931.500000000, A.D. 2025-Sep-13 00:00:00.0000, -3.929162180699771E+08, -1.005019506142494E+08, -2.073978560323817E+07,
2460938.500000000, A.D. 2025-Sep-20 00:00:00.0000, -3.910456152395085E+08, -1.105621068075235E+08, -2.345476619627212E+07,
2460945.500000000, A.D. 2025-Sep-27 00:00:00.0000, -3.888935358413100E+08, -1.205427263043949E+08, -2.615286669984802E+07,
2460952.500000000, A.D. 2025-Oct-04 00:00:00.0000, -3.864634470627888E+08, -1.304372198553921E+08, -2.883227404842844E+07,
2460959.500000000, A.D. 2025-Oct-11 00:00:00.0000, -3.837589325256348E+08, -1.402391376316784E+08, -3.149121063475767E+07,
2460966.500000000, A.D. 2025-Oct-18 00:00:00.0000, -3.807836872755603E+08, -1.499421679682605E+08, -3.412793406327204E+07,
2460973.500000000, A.D. 2025-Oct-25 00:00:00.0000, -3.775415130681356E+08, -1.595401361205719E+08, -3.674073687878364E+07,
2460980.500000000, A.D. 2025-Nov-01 00:00:00.0000, -3.740363139067827E+08, -1.690270030319869E+08, -3.932794627704829E+07,
2460987.500000000, A.D. 2025-Nov-08 00:00:00.0000, -3.702720917928957E+08, -1.783968641551770E+08, -4.188792380689027E+07,
2460994.500000000, A.D. 2025-Nov-15 00:00:00.0000, -3.662529425336513E+08, -1.876439483957527E+08, -4.441906508567043E+07,
2461001.500000000, A.D. 2025-Nov-22 00:00:00.0000, -3.619830511965275E+08, -1.967626169667007E+08, -4.691979954973987E+07,
2461008.500000000, A.D. 2025-Nov-29 00:00:00.0000, -3.574666873534591E+08, -2.057473610271599E+08, -4.938859013503963E+07,
2461015.500000000, A.D. 2025-Dec-06 00:00:00.0000, -3.527082023810831E+08, -2.145927982519026E+08, -5.182393269195981E+07,
2461022.500000000, A.D. 2025-Dec-13 00:00:00.0000, -3.477120283754652E+08, -2.232936717148529E+08, -5.422435545255712E+07,
2461029.500000000, A.D. 2025-Dec-20 00:00:00.0000, -3.424826751847312E+08, -2.318448500758405E+08, -5.658841879073797E+07,
2461036.500000000, A.D. 2025-Dec-27 00:00:00.0000, -3.370247266303336E+08, -2.402413264874390E+08, -5.891471496849720E+07,
2461043.500000000, A.D. 2026-Jan-03 00:00:00.0000, -3.313428373705755E+08, -2.484782168427685E+08, -6.120186778702934E+07,
2461050.500000000, A.D. 2026-Jan-10 00:00:00.0000, -3.254417302893972E+08, -2.565507580483248E+08, -6.344853221011895E+07,
2461057.500000000, A.D. 2026-Jan-17 00:00:00.0000, -3.193261941707204E+08, -2.644543064190284E+08, -6.565339399045707E+07,
2461064.500000000, A.D. 2026-Jan-24 00:00:00.0000, -3.130010815738176E+08, -2.721843361781332E+08, -6.781516930592127E+07,
2461071.500000000, A.D. 2026-Jan-31 00:00:00.0000, -3.064713068796795E+08, -2.797364380739538E+08, -6.993260441005763E+07,
2461078.500000000, A.D. 2026-Feb-07 00:00:00.0000, -2.997418444400848E+08, -2.871063181748717E+08, -7.200447530835062E+07,
2461085.500000000, A.D. 2026-Feb-14 00:00:00.0000, -2.928177265695494E+08, -2.942897968618610E+08, -7.402958748592153E+07,
2461092.500000000, A.D. 2026-Feb-21 00:00:00.0000, -2.857040409860028E+08, -3.012828074451780E+08, -7.600677567613527E+07,
2461099.500000000, A.D. 2026-Feb-28 00:00:00.0000, -2.784059287782202E+08, -3.080813932549368E+08, -7.793490347722688E+07,
2461106.500000000, A.D. 2026-Mar-07 00:00:00.0000, -2.709285849512419E+08, -3.146817051590351E+08, -7.981286278833388E+07,
2461113.500000000, A.D. 2026-Mar-14 00:00:00.0000, -2.632772587678038E+08, -3.210800018461671E+08, -8.163957351154865E+07,
2461120.500000000, A.D. 2026-Mar-21 00:00:00.0000, -2.554572520982738E+08, -3.272726499808165E+08, -8.341398344825903E+07,
2461127.500000000, A.D. 2026-Mar-28 00:00:00.0000, -2.474739177836001E+08, -3.332561232046362E+08, -8.513506812235478E+07,
2461134.500000000, A.D. 2026-Apr-04 00:00:00.0000, -2.393326586091142E+08, -3.390270009520799E+08, -8.680183055429657E+07,
2461141.500000000, A.D. 2026-Apr-11 00:00:00.0000, -2.310389266088752E+08, -3.445819674427409E+08, -8.841330104100730E+07,
2461148.500000000, A.D. 2026-Apr-18 00:00:00.0000, -2.225982225350001E+08, -3.499178108603522E+08, -8.996853695748393E+07,
2461155.500000000, A.D. 2026-Apr-25 00:00:00.0000, -2.140160954406181E+08, -3.550314227073666E+08, -9.146662258419098E+07,
2461162.500000000, A.D. 2026-May-02 00:00:00.0000, -2.052981423408446E+08, -3.599197973679282E+08, -9.290666896649377E+07,
2461169.500000000, A.D. 2026-May-09 00:00:00.0000, -1.964500078223296E+08, -3.645800319479001E+08, -9.428781382371044E+07,
2461176.500000000, A.D. 2026-May-16 00:00:00.0000, -1.874773832183924E+08, -3.690093262554848E+08, -9.560922153158273E+07,
2461183.500000000, A.D. 2026-May-23 00:00:00.0000, -1.783860052926346E+08, -3.732049819014067E+08, -9.687008309950227E+07,
2461190.500000000, A.D. 2026-May-30 00:00:00.0000, -1.691816565034696E+08, -3.771644001997549E+08, -9.806961592549808E+07,
2461197.500000000, A.D. 2026-Jun-06 00:00:00.0000, -1.598701671598198E+08, -3.808850821442552E+08, -9.920706356730819E+07,
2461204.500000000, A.D. 2026-Jun-13 00:00:00.0000, -1.504574157954491E+08, -3.843646302644174E+08, -1.002816958504064E+08,
2461211.500000000, A.D. 2026-Jun-20 00:00:00.0000, -1.409493282576778E+08, -3.876007494394548E+08, -1.012928090293588E+08,
2461218.500000000, A.D. 2026-Jun-27 00:00:00.0000, -1.313518772038691E+08, -3.905912470130490E+08, -1.022397258759346E+08,
2461225.500000000, A.D. 2026-Jul-04 00:00:00.0000, -1.216710820008812E+08, -3.933340329865798E+08, -1.031217957587378E+08,
2461232.500000000, A.D. 2026-Jul-11 00:00:00.0000, -1.119130087687500E+08, -3.958271204251600E+08, -1.039383947498634E+08,
2461239.500000000, A.D. 2026-Jul-18 00:00:00.0000, -1.020837704711200E+08, -3.980686260530021E+08, -1.046889257663665E+08,
2461246.500000000, A.D. 2026-Jul-25 00:00:00.0000, -9.218952702348717E+07, -4.000567710375398E+08, -1.053728187498067E+08,
2461253.500000000, A.D. 2026-Aug-01 00:00:00.0000, -8.223648536701068E+07, -4.017898820118942E+08, -1.059895308929124E+08,
2461260.500000000, A.D. 2026-Aug-08 00:00:00.0000, -7.223089928838871E+07, -4.032663923718869E+08, -1.065385469358214E+08,
2461267.500000000, A.D. 2026-Aug-15 00:00:00.0000, -6.217906856470162E+07, -4.044848433969782E+08, -1.070193795324461E+08,
2461274.500000000, A.D. 2026-Aug-22 00:00:00.0000, -5.208733818681820E+07, -4.054438839741206E+08, -1.074315695169367E+08,
2461281.500000000, A.D. 2026-Aug-29 00:00:00.0000, -4.196209994227625E+07, -4.061422702983819E+08, -1.077746859728252E+08,
$$EOE